LEGION 1                
1 59625U 24081A   24134.51279740  .00010812  00000+0  56453-3 0  9998
2 59625  97.5767 205.6290 0005066 124.1501 236.0212 15.16086216  1626
